[
    {
        "Altitude(m)": 559025.4755929459,
        "Argument of Periapsis(deg)": 0.033114955553567506,
        "Eccentricity": 0.0,
        "Inclination(deg)": 53.0,
        "Latitude(deg)": 49.31218610436275,
        "Longitude(deg)": 55.35942033689013,
        "Mean Anomaly(deg)": 108.63986433788791,
        "RAAN(deg)": 39.950716842640084,
        "Satellite Name": "Starlink Shell 1 179",
        "Satellite Number": 179,
        "Semi-Major Axis(m)": 6931778.249405717,
        "Time(s)": 950
    },
    {
        "Altitude(m)": 558968.5213203676,
        "Argument of Periapsis(deg)": 0.03346353403307874,
        "Eccentricity": 0.0,
        "Inclination(deg)": 53.0,
        "Latitude(deg)": 49.06326156021678,
        "Longitude(deg)": 56.196244978125605,
        "Mean Anomaly(deg)": 109.26669554144466,
        "RAAN(deg)": 39.95019807256261,
        "Satellite Name": "Starlink Shell 1 179",
        "Satellite Number": 179,
        "Semi-Major Axis(m)": 6931778.249405717,
        "Time(s)": 960
    },
    {
        "Altitude(m)": 558910.0630146129,
        "Argument of Periapsis(deg)": 0.03381211251258998,
        "Eccentricity": 0.0,
        "Inclination(deg)": 53.0,
        "Latitude(deg)": 48.80771459030379,
        "Longitude(deg)": 57.024233896389944,
        "Mean Anomaly(deg)": 109.89352674500138,
        "RAAN(deg)": 39.94967930248514,
        "Satellite Name": "Starlink Shell 1 179",
        "Satellite Number": 179,
        "Semi-Major Axis(m)": 6931778.249405717,
        "Time(s)": 970
    },
    {
        "Altitude(m)": 558850.1364555269,
        "Argument of Periapsis(deg)": 0.034160690992101214,
        "Eccentricity": 0.0,
        "Inclination(deg)": 53.0,
        "Latitude(deg)": 48.545669839609744,
        "Longitude(deg)": 57.84332985777514,
        "Mean Anomaly(deg)": 110.52035794855807,
        "RAAN(deg)": 39.94916053240767,
        "Satellite Name": "Starlink Shell 1 179",
        "Satellite Number": 179,
        "Semi-Major Axis(m)": 6931778.249405717,
        "Time(s)": 980
    },
    {
        "Altitude(m)": 558788.7783693617,
        "Argument of Periapsis(deg)": 0.034509269471612446,
        "Eccentricity": 0.0,
        "Inclination(deg)": 53.0,
        "Latitude(deg)": 48.27725199258501,
        "Longitude(deg)": 58.653489139274086,
        "Mean Anomaly(deg)": 111.1471891521148,
        "RAAN(deg)": 39.94864176233019,
        "Satellite Name": "Starlink Shell 1 179",
        "Satellite Number": 179,
        "Semi-Major Axis(m)": 6931778.249405717,
        "Time(s)": 990
    }
]